OBJECT_NAME,OBJECT_ID,EPOCH,MEAN_MOTION,ECCENTRICITY,INCLINATION,RA_OF_ASC_NODE,ARG_OF_PERICENTER,MEAN_ANOMALY,EPHEMERIS_TYPE,CLASSIFICATION_TYPE,NORAD_CAT_ID,ELEMENT_SET_NO,REV_AT_EPOCH,BSTAR,MEAN_MOTION_DOT,MEAN_MOTION_DDOT
ONEWEB-0230,2021-045C,2026-06-14T04:45:51.358176,13.15548377,.0002032,87.9001,259.7990,95.8052,264.3310,0,U,48769,999,24427,.33625E-4,.25E-6,0
ONEWEB-0237,2021-045D,2026-06-14T04:29:51.883584,13.15547545,.0001729,87.9001,259.8030,101.5978,258.5346,0,U,48770,999,24399,.28882E-3,.122E-5,0
ONEWEB-0235,2021-045E,2026-06-14T00:14:20.069664,13.15548424,.0001592,87.9008,259.8239,107.8139,252.3165,0,U,48771,999,24396,.40705E-3,.166E-5,0
ONEWEB-0242,2021-045F,2026-06-14T00:05:10.885344,13.15547211,.0001781,87.9010,259.8220,98.5610,261.5723,0,U,48772,999,24400,.18272E-3,.82E-6,0
ONEWEB-0241,2021-045G,2026-06-14T05:15:31.452192,13.15549050,.0001799,87.8998,259.7977,113.0380,247.0940,0,U,48773,999,24394,-.17911E-3,-.55E-6,0
ONEWEB-0243,2021-045H,2026-06-14T00:32:35.061792,13.15548239,.0001491,87.9000,259.8490,92.4717,267.6584,0,U,48774,999,24394,.21209E-3,.93E-6,0
ONEWEB-0222,2021-045J,2026-06-14T00:08:37.415040,13.15548442,.0001805,87.9007,259.8197,106.3670,253.7659,0,U,48775,999,24398,-.1747E-4,.6E-7,0
ONEWEB-0244,2021-045K,2026-06-13T22:56:45.197952,13.15548689,.0001824,87.9015,259.8240,100.8490,259.2845,0,U,48776,999,24454,.3012E-3,.126E-5,0
ONEWEB-0247,2021-045L,2026-06-13T22:52:10.703424,13.15547284,.0001124,87.9001,259.8575,99.9783,260.1474,0,U,48777,999,24398,.31055E-3,.13E-5,0
ONEWEB-0245,2021-045M,2026-06-14T00:34:51.394080,13.15547643,.0001922,87.9010,259.8220,105.9871,254.1471,0,U,48778,999,24396,.2481E-3,.106E-5,0
ONEWEB-0229,2021-045N,2026-06-14T00:28:01.235136,13.15548122,.0001846,87.9010,259.8210,98.5750,261.5590,0,U,48779,999,24399,.35697E-3,.147E-5,0
ONEWEB-0228,2021-045P,2026-06-14T04:55:09.402816,13.15546586,.0001891,87.9016,259.7763,102.2637,257.8705,0,U,48780,999,24393,-.19369E-3,-.6E-6,0
ONEWEB-0232,2021-045Q,2026-06-14T00:39:24.740352,13.15549848,.0001968,87.9013,259.8128,103.0383,257.0967,0,U,48781,999,24423,.42248E-3,.172E-5,0
ONEWEB-0231,2021-045R,2026-06-14T00:07:28.631136,13.15548883,.0001785,87.9003,259.8306,106.1897,253.9429,0,U,48782,999,24392,.14982E-3,.69E-6,0
ONEWEB-0234,2021-045S,2026-06-14T04:41:05.451072,13.15549078,.0002679,87.9011,259.7743,112.1101,248.0314,0,U,48783,999,24408,.93438E-4,.48E-6,0
ONEWEB-0238,2021-045T,2026-06-14T04:41:28.296096,13.15547008,.0002292,87.9016,259.7685,107.7465,252.3916,0,U,48784,999,24398,-.93525E-6,.12E-6,0
ONEWEB-0240,2021-045U,2026-06-14T05:12:04.959648,13.15547360,.0001849,87.9013,259.7748,110.7050,249.4279,0,U,48785,999,24401,-.12838E-3,-.36E-6,0
ONEWEB-0246,2021-045V,2026-06-14T05:04:06.524832,13.15549566,.0001882,87.9011,259.7798,97.9833,262.1511,0,U,48786,999,24388,-.71936E-4,-.14E-6,0
ONEWEB-0210,2021-045W,2026-06-14T04:27:34.689024,13.15550676,.0001168,87.9011,259.7822,85.3973,274.7291,0,U,48787,999,24392,.29062E-3,.122E-5,0
ONEWEB-0214,2021-045X,2026-06-14T04:40:08.688000,13.15548792,.0001838,87.9012,259.7770,89.7905,270.3436,0,U,48788,999,24389,-.13182E-4,.8E-7,0
ONEWEB-0221,2021-045Y,2026-06-14T04:50:25.022400,13.15548408,.0001788,87.9012,259.7843,103.2994,256.8335,0,U,48789,999,24398,-.11186E-3,-.29E-6,0
ONEWEB-0213,2021-045Z,2026-06-14T04:34:25.654080,13.15546813,.0001659,87.9011,259.7900,101.7020,258.4296,0,U,48790,999,24404,.14857E-3,.69E-6,0
ONEWEB-0212,2021-045AA,2026-06-14T04:01:21.420192,13.15549938,.0002025,87.9008,259.7890,101.6851,258.4507,0,U,48791,999,24403,.51182E-3,.206E-5,0
ONEWEB-0227,2021-045AB,2026-06-14T00:21:10.734048,13.15548869,.0001898,87.9008,259.8202,103.0425,257.0917,0,U,48792,999,24396,.51033E-3,.205E-5,0
ONEWEB-0226,2021-045AC,2026-06-14T00:12:01.974816,13.15550134,.0001702,87.9005,259.8262,99.0196,261.1127,0,U,48793,999,24393,.34533E-3,.143E-5,0
ONEWEB-0224,2021-045AD,2026-06-14T04:48:06.937056,13.15547313,.0002292,87.9003,259.8218,123.3287,236.8063,0,U,48794,999,24388,-.44659E-4,-.4E-7,0
ONEWEB-0233,2021-045AE,2026-06-14T04:54:46.768608,13.15548512,.0001751,87.9001,259.8285,107.1803,252.9520,0,U,48795,999,24390,-.12798E-3,-.35E-6,0
ONEWEB-0190,2021-045AF,2026-06-14T04:36:42.363072,13.15547124,.0001313,87.9004,259.7930,108.5466,251.5807,0,U,48796,999,24397,.21582E-3,.94E-6,0
ONEWEB-0236,2021-045AG,2026-06-14T05:01:49.694016,13.15548470,.0002109,87.9000,259.7998,102.3012,257.8354,0,U,48797,999,24386,-.94674E-4,-.23E-6,0
ONEWEB-0248,2021-045AH,2026-06-13T23:51:29.997216,13.15547620,.0001715,87.9009,259.8258,114.3952,245.7358,0,U,48798,999,24399,-.17953E-3,-.55E-6,0
