ONEWEB-0230             
1 48769U 21045C   26165.19851109  .00000025  00000+0  33625-4 0  9999
2 48769  87.9001 259.7990 0002032  95.8052 264.3310 13.15548377244270
ONEWEB-0237             
1 48770U 21045D   26165.18740606  .00000122  00000+0  28882-3 0  9995
2 48770  87.9001 259.8030 0001729 101.5978 258.5346 13.15547545243990
ONEWEB-0235             
1 48771U 21045E   26165.00995451  .00000166  00000+0  40705-3 0  9993
2 48771  87.9008 259.8239 0001592 107.8139 252.3165 13.15548424243960
ONEWEB-0242             
1 48772U 21045F   26165.00359821  .00000082  00000+0  18272-3 0  9990
2 48772  87.9010 259.8220 0001781  98.5610 261.5723 13.15547211244005
ONEWEB-0241             
1 48773U 21045G   26165.21911403 -.00000055  00000+0 -17911-3 0  9995
2 48773  87.8998 259.7977 0001799 113.0380 247.0940 13.15549050243949
ONEWEB-0243             
1 48774U 21045H   26165.02262803  .00000093  00000+0  21209-3 0  9993
2 48774  87.9000 259.8490 0001491  92.4717 267.6584 13.15548239243949
ONEWEB-0222             
1 48775U 21045J   26165.00598860  .00000006  00000+0 -17470-4 0  9998
2 48775  87.9007 259.8197 0001805 106.3670 253.7659 13.15548442243982
ONEWEB-0244             
1 48776U 21045K   26164.95607868  .00000126  00000+0  30120-3 0  9999
2 48776  87.9015 259.8240 0001824 100.8490 259.2845 13.15548689244545
ONEWEB-0247             
1 48777U 21045L   26164.95290166  .00000130  00000+0  31055-3 0  9992
2 48777  87.9001 259.8575 0001124  99.9783 260.1474 13.15547284243984
ONEWEB-0245             
1 48778U 21045M   26165.02420595  .00000106  00000+0  24810-3 0  9997
2 48778  87.9010 259.8220 0001922 105.9871 254.1471 13.15547643243961
ONEWEB-0229             
1 48779U 21045N   26165.01945874  .00000147  00000+0  35697-3 0  9999
2 48779  87.9010 259.8210 0001846  98.5750 261.5590 13.15548122243999
ONEWEB-0228             
1 48780U 21045P   26165.20496994 -.00000060  00000+0 -19369-3 0  9990
2 48780  87.9016 259.7763 0001891 102.2637 257.8705 13.15546586243938
ONEWEB-0232             
1 48781U 21045Q   26165.02736968  .00000172  00000+0  42248-3 0  9993
2 48781  87.9013 259.8128 0001968 103.0383 257.0967 13.15549848244234
ONEWEB-0231             
1 48782U 21045R   26165.00519249  .00000069  00000+0  14982-3 0  9992
2 48782  87.9003 259.8306 0001785 106.1897 253.9429 13.15548883243924
ONEWEB-0234             
1 48783U 21045S   26165.19520198  .00000048  00000+0  93438-4 0  9999
2 48783  87.9011 259.7743 0002679 112.1101 248.0314 13.15549078244089
ONEWEB-0238             
1 48784U 21045T   26165.19546639  .00000012  00000+0 -93525-6 0  9999
2 48784  87.9016 259.7685 0002292 107.7465 252.3916 13.15547008243989
ONEWEB-0240             
1 48785U 21045U   26165.21672407 -.00000036  00000+0 -12838-3 0  9998
2 48785  87.9013 259.7748 0001849 110.7050 249.4279 13.15547360244013
ONEWEB-0246             
1 48786U 21045V   26165.21118663 -.00000014  00000+0 -71936-4 0  9999
2 48786  87.9011 259.7798 0001882  97.9833 262.1511 13.15549566243884
ONEWEB-0210             
1 48787U 21045W   26165.18581816  .00000122  00000+0  29062-3 0  9990
2 48787  87.9011 259.7822 0001168  85.3973 274.7291 13.15550676243929
ONEWEB-0214             
1 48788U 21045X   26165.19454500  .00000008  00000+0 -13182-4 0  9992
2 48788  87.9012 259.7770 0001838  89.7905 270.3436 13.15548792243895
ONEWEB-0221             
1 48789U 21045Y   26165.20167850 -.00000029  00000+0 -11186-3 0  9999
2 48789  87.9012 259.7843 0001788 103.2994 256.8335 13.15548408243982
ONEWEB-0213             
1 48790U 21045Z   26165.19057470  .00000069  00000+0  14857-3 0  9995
2 48790  87.9011 259.7900 0001659 101.7020 258.4296 13.15546813244047
ONEWEB-0212             
1 48791U 21045AA  26165.16760903  .00000206  00000+0  51182-3 0  9990
2 48791  87.9008 259.7890 0002025 101.6851 258.4507 13.15549938244036
ONEWEB-0227             
1 48792U 21045AB  26165.01470757  .00000205  00000+0  51033-3 0  9994
2 48792  87.9008 259.8202 0001898 103.0425 257.0917 13.15548869243968
ONEWEB-0226             
1 48793U 21045AC  26165.00835619  .00000143  00000+0  34533-3 0  9993
2 48793  87.9005 259.8262 0001702  99.0196 261.1127 13.15550134243939
ONEWEB-0224             
1 48794U 21045AD  26165.20008029 -.00000004  00000+0 -44659-4 0  9992
2 48794  87.9003 259.8218 0002292 123.3287 236.8063 13.15547313243883
ONEWEB-0233             
1 48795U 21045AE  26165.20470797 -.00000035  00000+0 -12798-3 0  9990
2 48795  87.9001 259.8285 0001751 107.1803 252.9520 13.15548512243901
ONEWEB-0190             
1 48796U 21045AF  26165.19215698  .00000094  00000+0  21582-3 0  9990
2 48796  87.9004 259.7930 0001313 108.5466 251.5807 13.15547124243973
ONEWEB-0236             
1 48797U 21045AG  26165.20960294 -.00000023  00000+0 -94674-4 0  9999
2 48797  87.9000 259.7998 0002109 102.3012 257.8354 13.15548470243866
ONEWEB-0248             
1 48798U 21045AH  26164.99409719 -.00000055  00000+0 -17953-3 0  9994
2 48798  87.9009 259.8258 0001715 114.3952 245.7358 13.15547620243994
